{
  "type": "FeatureCollection",
  "features": [
    {
      "type": "Feature",
      "properties": {
        "norad_id": 66632,
        "name": "STARLINK-35973",
        "group": "last-30-days",
        "lat": -28.55640383808581,
        "lon": 35.8031435780243,
        "alt_km": 409.2749138916615,
        "timestamp": "2025-12-11T18:59:44.811292+00:00",
        "meta_object_name": "STARLINK-35973",
        "meta_object_id": "2025-271R",
        "meta_epoch": "2025-12-11T06:00:02.999808",
        "meta_mean_motion": 15.56427914,
        "meta_eccentricity": 0.00010657,
        "meta_inclination": 53.1598,
        "meta_ra_of_asc_node": 194.3348,
        "meta_arg_of_pericenter": 75.8338,
        "meta_mean_anomaly": 347.5854,
        "meta_ephemeris_type": 0,
        "meta_classification_type": "U",
        "meta_norad_cat_id": 66632,
        "meta_element_set_no": 999,
        "meta_rev_at_epoch": 394,
        "meta_bstar": -0.03283051,
        "meta_mean_motion_dot": -0.02102205,
        "meta_mean_motion_ddot": 0,
        "tle_line1": "1 66632U 25271R   25345.25003472 -.02102205  00000+0 -32831-1 0  9993",
        "tle_line2": "2 66632  53.1598 194.3348 0001065  75.8338 347.5854 15.56427914  3940"
      },
      "geometry": {
        "type": "Point",
        "coordinates": [
          35.8031435780243,
          -28.55640383808581
        ]
      }
    },
    {
      "type": "Feature",
      "properties": {
        "norad_id": 66633,
        "name": "STARLINK-35948",
        "group": "last-30-days",
        "lat": -29.945167538108148,
        "lon": 37.30547472813326,
        "alt_km": 409.4363153460117,
        "timestamp": "2025-12-11T18:59:44.811304+00:00",
        "meta_object_name": "STARLINK-35948",
        "meta_object_id": "2025-271S",
        "meta_epoch": "2025-12-11T06:00:02.999808",
        "meta_mean_motion": 15.56424799,
        "meta_eccentricity": 8.987e-05,
        "meta_inclination": 53.1598,
        "meta_ra_of_asc_node": 194.3298,
        "meta_arg_of_pericenter": 92.3179,
        "meta_mean_anomaly": 333.0209,
        "meta_ephemeris_type": 0,
        "meta_classification_type": "U",
        "meta_norad_cat_id": 66633,
        "meta_element_set_no": 999,
        "meta_rev_at_epoch": 400,
        "meta_bstar": -0.032783561,
        "meta_mean_motion_dot": -0.02099204,
        "meta_mean_motion_ddot": 0,
        "tle_line1": "1 66633U 25271S   25345.25003472 -.02099204  00000+0 -32784-1 0  9995",
        "tle_line2": "2 66633  53.1598 194.3298 0000898  92.3179 333.0209 15.56424799  4005"
      },
      "geometry": {
        "type": "Point",
        "coordinates": [
          37.30547472813326,
          -29.945167538108148
        ]
      }
    },
    {
      "type": "Feature",
      "properties": {
        "norad_id": 66634,
        "name": "STARLINK-35967",
        "group": "last-30-days",
        "lat": -31.322178843541696,
        "lon": 38.85759993025517,
        "alt_km": 409.40495927652046,
        "timestamp": "2025-12-11T18:59:44.811314+00:00",
        "meta_object_name": "STARLINK-35967",
        "meta_object_id": "2025-271T",
        "meta_epoch": "2025-12-11T06:00:02.999808",
        "meta_mean_motion": 15.56422128,
        "meta_eccentricity": 0.00010373,
        "meta_inclination": 53.1599,
        "meta_ra_of_asc_node": 194.3255,
        "meta_arg_of_pericenter": 84.7668,
        "meta_mean_anomaly": 342.4876,
        "meta_ephemeris_type": 0,
        "meta_classification_type": "U",
        "meta_norad_cat_id": 66634,
        "meta_element_set_no": 999,
        "meta_rev_at_epoch": 393,
        "meta_bstar": -0.032649432,
        "meta_mean_motion_dot": -0.02091457,
        "meta_mean_motion_ddot": 0,
        "tle_line1": "1 66634U 25271T   25345.25003472 -.02091457  00000+0 -32649-1 0  9998",
        "tle_line2": "2 66634  53.1599 194.3255 0001037  84.7668 342.4876 15.56422128  3933"
      },
      "geometry": {
        "type": "Point",
        "coordinates": [
          38.85759993025517,
          -31.322178843541696
        ]
      }
    },
    {
      "type": "Feature",
      "properties": {
        "norad_id": 66635,
        "name": "STARLINK-35955",
        "group": "last-30-days",
        "lat": -32.67066919280662,
        "lon": 40.44544639089963,
        "alt_km": 409.6230062383611,
        "timestamp": "2025-12-11T18:59:44.811324+00:00",
        "meta_object_name": "STARLINK-35955",
        "meta_object_id": "2025-271U",
        "meta_epoch": "2025-12-11T06:00:02.999808",
        "meta_mean_motion": 15.56433294,
        "meta_eccentricity": 0.00010891,
        "meta_inclination": 53.1597,
        "meta_ra_of_asc_node": 194.3218,
        "meta_arg_of_pericenter": 76.8541,
        "meta_mean_anomaly": 352.3147,
        "meta_ephemeris_type": 0,
        "meta_classification_type": "U",
        "meta_norad_cat_id": 66635,
        "meta_element_set_no": 999,
        "meta_rev_at_epoch": 400,
        "meta_bstar": -0.032990648,
        "meta_mean_motion_dot": -0.0211172,
        "meta_mean_motion_ddot": 0,
        "tle_line1": "1 66635U 25271U   25345.25003472 -.02111720  00000+0 -32991-1 0  9995",
        "tle_line2": "2 66635  53.1597 194.3218 0001089  76.8541 352.3147 15.56433294  4006"
      },
      "geometry": {
        "type": "Point",
        "coordinates": [
          40.44544639089963,
          -32.67066919280662
        ]
      }
    },
    {
      "type": "Feature",
      "properties": {
        "norad_id": 66636,
        "name": "STARLINK-35968",
        "group": "last-30-days",
        "lat": -34.00259428252839,
        "lon": 42.08642630233195,
        "alt_km": 409.73475882769617,
        "timestamp": "2025-12-11T18:59:44.811334+00:00",
        "meta_object_name": "STARLINK-35968",
        "meta_object_id": "2025-271V",
        "meta_epoch": "2025-12-11T06:00:02.999808",
        "meta_mean_motion": 15.56431664,
        "meta_eccentricity": 0.00010961,
        "meta_inclination": 53.1595,
        "meta_ra_of_asc_node": 194.3176,
        "meta_arg_of_pericenter": 73.8232,
        "meta_mean_anomaly": 357.2615,
        "meta_ephemeris_type": 0,
        "meta_classification_type": "U",
        "meta_norad_cat_id": 66636,
        "meta_element_set_no": 999,
        "meta_rev_at_epoch": 400,
        "meta_bstar": -0.032935182,
        "meta_mean_motion_dot": -0.02108451,
        "meta_mean_motion_ddot": 0,
        "tle_line1": "1 66636U 25271V   25345.25003472 -.02108451  00000+0 -32935-1 0  9991",
        "tle_line2": "2 66636  53.1595 194.3176 0001096  73.8232 357.2615 15.56431664  4003"
      },
      "geometry": {
        "type": "Point",
        "coordinates": [
          42.08642630233195,
          -34.00259428252839
        ]
      }
    },
    {
      "type": "Feature",
      "properties": {
        "norad_id": 66637,
        "name": "STARLINK-35953",
        "group": "last-30-days",
        "lat": -35.31118282687746,
        "lon": 43.778420419941426,
        "alt_km": 409.83055140626857,
        "timestamp": "2025-12-11T18:59:44.811346+00:00",
        "meta_object_name": "STARLINK-35953",
        "meta_object_id": "2025-271W",
        "meta_epoch": "2025-12-11T06:00:02.999808",
        "meta_mean_motion": 15.56434368,
        "meta_eccentricity": 0.00010827,
        "meta_inclination": 53.1597,
        "meta_ra_of_asc_node": 194.3139,
        "meta_arg_of_pericenter": 74.2301,
        "meta_mean_anomaly": 358.7736,
        "meta_ephemeris_type": 0,
        "meta_classification_type": "U",
        "meta_norad_cat_id": 66637,
        "meta_element_set_no": 999,
        "meta_rev_at_epoch": 400,
        "meta_bstar": -0.033056686,
        "meta_mean_motion_dot": -0.0211555,
        "meta_mean_motion_ddot": 0,
        "tle_line1": "1 66637U 25271W   25345.25003472 -.02115550  00000+0 -33057-1 0  9996",
        "tle_line2": "2 66637  53.1597 194.3139 0001082  74.2301 358.7736 15.56434368  4006"
      },
      "geometry": {
        "type": "Point",
        "coordinates": [
          43.778420419941426,
          -35.31118282687746
        ]
      }
    },
    {
      "type": "Feature",
      "properties": {
        "norad_id": 66638,
        "name": "STARLINK-35972",
        "group": "last-30-days",
        "lat": -36.59746151346094,
        "lon": 45.528877570529474,
        "alt_km": 409.8549487479622,
        "timestamp": "2025-12-11T18:59:44.811356+00:00",
        "meta_object_name": "STARLINK-35972",
        "meta_object_id": "2025-271X",
        "meta_epoch": "2025-12-11T06:00:02.999808",
        "meta_mean_motion": 15.56427502,
        "meta_eccentricity": 0.0001084,
        "meta_inclination": 53.1597,
        "meta_ra_of_asc_node": 194.3102,
        "meta_arg_of_pericenter": 81.7895,
        "meta_mean_anomaly": 353.1309,
        "meta_ephemeris_type": 0,
        "meta_classification_type": "U",
        "meta_norad_cat_id": 66638,
        "meta_element_set_no": 999,
        "meta_rev_at_epoch": 400,
        "meta_bstar": -0.03286314,
        "meta_mean_motion_dot": -0.02104047,
        "meta_mean_motion_ddot": 0,
        "tle_line1": "1 66638U 25271X   25345.25003472 -.02104047  00000+0 -32863-1 0  9990",
        "tle_line2": "2 66638  53.1597 194.3102 0001084  81.7895 353.1309 15.56427502  4007"
      },
      "geometry": {
        "type": "Point",
        "coordinates": [
          45.528877570529474,
          -36.59746151346094
        ]
      }
    }
  ]
}